# Made by eph2tle, compiled Sep 23 2020 15:01:55
# Run at Thu Sep 24 22:14:13 2020
#
# No updates  (unless we get more data,  which seems unlikely)
#
#    The following TLEs (Two-Line Elements) were generated by fitting
# a numerically-integrated ephemeris,  based on the orbit given below,
# to the SDP4/SGP4 models.  Each TLE is good for the interval between
# its epoch and the epoch of the subsequent TLE (usually one day).
# The maximum deviation between the numerically integrated ephemerides
# and the TLE-based ephemeris, in kilometers,  is given for each TLE
# as the "worst residual".
#
#    This fitting is done using the 'eph2tle' code packaged with Find_Orb.
# The code has details on how the TLEs were computed :
#
#    https://github.com/Bill-Gray/find_orb/eph2tle.cpp
#
#    Be warned:  the error given is that between the numerically
# integrated ephems and the TLE model.  There will usually be at
# least some additional difference between the ephems and the actual
# motion of the satellite,  especially if the ephemerides are based
# on a short arc.  If the following orbital elements say something
# like "[based on] 10 observations 2015 Jan. 1-13",  and the TLEs
# are for 2015 May,  the extrapolation may be tenuous at best.  If
# your application requires a specific level of accuracy,  you may
# want to contact me;  I can give you some idea as to the fit of the
# underlying data (and possibly TLEs based on newer data).
#
#   You can usually find the underlying observational data,  and the
# fitted orbit,  residuals,  ephemerides,  and sometimes some comments
# about the object,  among the pages listed at
#
#    https://www.projectpluto.com/pluto/mpecs/pseudo.htm
#
#    Also,  if you use a TLE outside the "correct" time range (between
# its MJD and that of the next TLE),  all bets are off.  I've carefully
# computed and minimized the worst error over the "correct" time frame,
# but the ephemeris may (or may not) diverge wildly outside of it.
#
# Ephem range: 58849.000000 59215.000000 1.000000
# Created Thu Sep 24 22:13:53 2020
# Ephemeris start:  1 Jan 2020  0:00:00
# Ephemeris end:    1 Jan 2021  0:00:00
# Times are all TDT
# Positions/velocities are in equatorial J2000
#
# Orbit used for dates before 2020 Oct 1 :
#
# Orbital elements:  ZTF0Dy2 = ZTF0E1U = ZTF0E2T
#    Perigee 2020 Sep 4.743232 +/- 3.5611e-5 TT = 17:50:15.2 (JD 2459097.243232)
# A1: 1.50518e-5 +/- 6.92322e-9   A2: -3.10908e-8 +/- 2.26248e-9
# A3: 7.06314e-8 +/- 1.38042e-9 AU/day^2 [1/r^2]
# Epoch 2020 Sep  5.0 TT = JDT 2459097.5                        Find_Orb
# M  98.578389682 +/- 0.014387        (J2000 equator)
# n 383.920055192 +/- 0.000597411     Peri.  189.459553 +/- 0.0044866
# a 40467.80419 +/- 0.0419801         Node   323.201335 +/- 0.0017937
# e   0.76815261 +/- 1.68882e-5       Incl.   31.173267 +/- 0.000431205
# P1350.26m/0.938d           H 31.0   G  0.15   U  7.8
# q 9382.354603 +/- 0.686081    Q 71553.25378 +/- 0.667539
# From 33 observations 2020 Aug. 18-Sept. 22; mean residual 5".436
#
# Orbit used for dates after 2020 Oct 1 :
#
# Orbital elements:  ZTF0Dy2 = ZTF0E1U = ZTF0E2T
#    Perigee 2020 Sep 13.207035 +/- 0.00352335 TT =  4:58:07.8 (JD 2459105.707035)
# A1: 1.46741e-5 +/- 1.5043e-6   A2: 1.38325e-7 +/- 3.36314e-7
# A3: 7.62559e-8 +/- 1.58909e-7 AU/day^2 [1/r^2]
# Epoch 2020 Sep 13.0 TT = JDT 2459105.5                        Find_Orb
# M 280.492740725 +/- 1.4724          (J2000 equator)
# n 384.028305280 +/- 0.113774        Peri.  195.712075 +/- 0.6836
# a 40460.19911 +/- 7.99109           Node   321.692122 +/- 0.37379
# e   0.76125452 +/- 0.00138203       Incl.   29.146588 +/- 0.043695
# P1349.88m/0.937d           H 31.4   G  0.15   U 11.3
# q 9659.689303 +/- 56.7209    Q 71260.70892 +/- 51.8133
# 19 of 36 observations 2020 Aug. 20-Oct. 6; mean residual 27".350
#
# 1 NoradU COSPAR   Epoch.epoch     dn/dt/2  d2n/dt2/6 BSTAR    T El# C
# 2 NoradU Inclina RAAscNode Eccent  ArgPeri MeanAno  MeanMotion Rev# C

# Worst residual: 174.81 km
# MJD 58849.000000 (2020 Jan  1  0:00)
ZTF0Dy2 = ZTF0E1U = ZTF0E2T
1 89974U 00000AAZ 20001.49919926  .00000000  00000-0  00000-0 0  9999
2 89974 036.7302 351.4565 6289298 264.1084 344.5330 01.06463590    04

# Worst residual: 169.63 km
# MJD 58850.000000 (2020 Jan  2  0:00)
ZTF0Dy2 = ZTF0E1U = ZTF0E2T
1 89974U 00000AAZ 20002.49919926  .00000000  00000-0  00000-0 0  9990
2 89974 036.7203 351.2293 6247175 265.1229 006.0739 01.06573794    01

# Worst residual: 132.57 km
# MJD 58851.000000 (2020 Jan  3  0:00)
ZTF0Dy2 = ZTF0E1U = ZTF0E2T
1 89974U 00000AAZ 20003.49919926  .00000000  00000-0  00000-0 0  9991
2 89974 036.7111 350.9887 6206057 266.1281 027.6718 01.06632949    01

# Worst residual: 141.11 km
# MJD 58852.000000 (2020 Jan  4  0:00)
ZTF0Dy2 = ZTF0E1U = ZTF0E2T
1 89974U 00000AAZ 20004.49919926  .00000000  00000-0  00000-0 0  9992
2 89974 036.7023 350.7901 6164414 267.1180 049.2470 01.06650529    06

# Worst residual: 179.21 km
# MJD 58853.000000 (2020 Jan  5  0:00)
ZTF0Dy2 = ZTF0E1U = ZTF0E2T
1 89974U 00000AAZ 20005.49919926  .00000000  00000-0  00000-0 0  9993
2 89974 036.7003 350.5842 6124794 268.1218 070.7930 01.06600745    01

# Worst residual: 187.89 km
# MJD 58854.000000 (2020 Jan  6  0:00)
ZTF0Dy2 = ZTF0E1U = ZTF0E2T
1 89974U 00000AAZ 20006.49919926  .00000000  00000-0  00000-0 0  9994
2 89974 036.6876 350.3594 6084967 269.1951 092.2593 01.06526226    07

# Worst residual: 204.16 km
# MJD 58855.000000 (2020 Jan  7  0:00)
ZTF0Dy2 = ZTF0E1U = ZTF0E2T
1 89974U 00000AAZ 20007.49919926  .00000000  00000-0  00000-0 0  9995
2 89974 036.6797 350.1567 6042687 270.2503 113.7014 01.06429876    06

# Worst residual: 222.56 km
# MJD 58856.000000 (2020 Jan  8  0:00)
ZTF0Dy2 = ZTF0E1U = ZTF0E2T
1 89974U 00000AAZ 20008.49919926  .00000000  00000-0  00000-0 0  9996
2 89974 036.6931 349.8868 5999266 271.4311 135.0134 01.06329317    07

# Worst residual: 180.45 km
# MJD 58857.000000 (2020 Jan  9  0:00)
ZTF0Dy2 = ZTF0E1U = ZTF0E2T
1 89974U 00000AAZ 20009.49919926  .00000000  00000-0  00000-0 0  9997
2 89974 036.6819 349.7197 5948953 272.5200 156.3188 01.06203691    03

# Worst residual: 150.72 km
# MJD 58858.000000 (2020 Jan 10  0:00)
ZTF0Dy2 = ZTF0E1U = ZTF0E2T
1 89974U 00000AAZ 20010.49919926  .00000000  00000-0  00000-0 0  9999
2 89974 036.6863 349.5195 5895689 273.6410 177.5997 01.06100716    07

# Worst residual: 112.64 km
# MJD 58859.000000 (2020 Jan 11  0:00)
ZTF0Dy2 = ZTF0E1U = ZTF0E2T
1 89974U 00000AAZ 20011.49919926  .00000000  00000-0  00000-0 0  9990
2 89974 036.6957 349.3653 5837212 274.6570 198.9731 01.05988101    08

# Worst residual: 72.60 km
# MJD 58860.000000 (2020 Jan 12  0:00)
ZTF0Dy2 = ZTF0E1U = ZTF0E2T
1 89974U 00000AAZ 20012.49919926  .00000000  00000-0  00000-0 0  9991
2 89974 036.7003 349.1655 5789823 275.6905 220.4156 01.05955938    02

# Worst residual: 119.38 km
# MJD 58861.000000 (2020 Jan 13  0:00)
ZTF0Dy2 = ZTF0E1U = ZTF0E2T
1 89974U 00000AAZ 20013.49919926  .00000000  00000-0  00000-0 0  9992
2 89974 036.7113 348.9938 5749498 276.7432 241.7939 01.05980521    07

# Worst residual: 202.60 km
# MJD 58862.000000 (2020 Jan 14  0:00)
ZTF0Dy2 = ZTF0E1U = ZTF0E2T
1 89974U 00000AAZ 20014.49919926  .00000000  00000-0  00000-0 0  9993
2 89974 036.7255 348.8130 5707623 277.8441 263.1457 01.06040334    06

# Worst residual: 246.26 km
# MJD 58863.000000 (2020 Jan 15  0:00)
ZTF0Dy2 = ZTF0E1U = ZTF0E2T
1 89974U 00000AAZ 20015.49919926  .00000000  00000-0  00000-0 0  9994
2 89974 036.7348 348.6540 5665999 278.9603 284.4428 01.06130682    03

# Worst residual: 249.89 km
# MJD 58864.000000 (2020 Jan 16  0:00)
ZTF0Dy2 = ZTF0E1U = ZTF0E2T
1 89974U 00000AAZ 20016.49919926  .00000000  00000-0  00000-0 0  9995
2 89974 036.7489 348.4988 5621349 280.0957 305.7641 01.06241777    02

# Worst residual: 211.20 km
# MJD 58865.000000 (2020 Jan 17  0:00)
ZTF0Dy2 = ZTF0E1U = ZTF0E2T
1 89974U 00000AAZ 20017.49919926  .00000000  00000-0  00000-0 0  9996
2 89974 036.7635 348.3540 5574613 281.2406 327.0967 01.06373130    08

# Worst residual: 191.73 km
# MJD 58866.000000 (2020 Jan 18  0:00)
ZTF0Dy2 = ZTF0E1U = ZTF0E2T
1 89974U 00000AAZ 20018.49919926  .00000000  00000-0  00000-0 0  9997
2 89974 036.7808 348.1908 5526426 282.3735 348.5035 01.06486094    00

# Worst residual: 184.49 km
# MJD 58867.000000 (2020 Jan 19  0:00)
ZTF0Dy2 = ZTF0E1U = ZTF0E2T
1 89974U 00000AAZ 20019.49919926  .00000000  00000-0  00000-0 0  9998
2 89974 036.7872 348.0865 5475119 283.4812 009.9302 01.06603837    03

# Worst residual: 147.96 km
# MJD 58868.000000 (2020 Jan 20  0:00)
ZTF0Dy2 = ZTF0E1U = ZTF0E2T
1 89974U 00000AAZ 20020.49919926  .00000000  00000-0  00000-0 0  9990
2 89974 036.8060 347.9637 5427439 284.5534 031.4365 01.06671872    06

# Worst residual: 127.57 km
# MJD 58869.000000 (2020 Jan 21  0:00)
ZTF0Dy2 = ZTF0E1U = ZTF0E2T
1 89974U 00000AAZ 20021.49919926  .00000000  00000-0  00000-0 0  9991
2 89974 036.8191 347.8453 5381347 285.6525 052.9070 01.06676816    09

# Worst residual: 169.06 km
# MJD 58870.000000 (2020 Jan 22  0:00)
ZTF0Dy2 = ZTF0E1U = ZTF0E2T
1 89974U 00000AAZ 20022.49919926  .00000000  00000-0  00000-0 0  9992
2 89974 036.8324 347.7298 5336834 286.7751 074.3384 01.06630914    02

# Worst residual: 209.04 km
# MJD 58871.000000 (2020 Jan 23  0:00)
ZTF0Dy2 = ZTF0E1U = ZTF0E2T
1 89974U 00000AAZ 20023.49919926  .00000000  00000-0  00000-0 0  9993
2 89974 036.8455 347.6179 5292114 287.9474 095.6766 01.06541757    07

# Worst residual: 229.34 km
# MJD 58872.000000 (2020 Jan 24  0:00)
ZTF0Dy2 = ZTF0E1U = ZTF0E2T
1 89974U 00000AAZ 20024.49919926  .00000000  00000-0  00000-0 0  9994
2 89974 036.8624 347.4914 5246945 289.1757 116.9250 01.06423785    04

# Worst residual: 226.19 km
# MJD 58873.000000 (2020 Jan 25  0:00)
ZTF0Dy2 = ZTF0E1U = ZTF0E2T
1 89974U 00000AAZ 20025.49919926  .00000000  00000-0  00000-0 0  9995
2 89974 036.8662 347.4447 5197461 290.3385 138.0867 01.06288193    07
